[Satellite]
VERSION=1.1
NAME=GPS BIIR-3  (PRN 11)
NICKNAME=GPS BIIR-3  (PRN 11)
TLE1=1 25933U 99055A   20157.26496965 -.00000097  00000-0  00000-0 0  9999
TLE2=2 25933  52.3020  30.5314 0158078 114.3630  37.0560  2.00558171151398
STATUS=0
